{"type": "FeatureCollection", "features": [ {"type": "Feature", "properties": {"norad_id": 36047, "name": "COSMOS 2251 DEB", "group": "cosmos-2251-debris", "lat": 56.342465997837934, "lon": 117.47413048035772, "alt_km": 576.5631484872756, "timestamp": "2025-12-18T07:01:54.986611+00:00", "meta": {"OBJECT_NAME": "COSMOS 2251 DEB", "OBJECT_ID": "1993-036AXJ", "EPOCH": "2025-12-17T16:03:19.014912", "MEAN_MOTION": 14.96190493, "ECCENTRICITY": 0.00083861, "INCLINATION": 74.0351, "RA_OF_ASC_NODE": 324.1985, "ARG_OF_PERICENTER": 352.071, "MEAN_ANOMALY": 8.0341, "EPHEMERIS_TYPE": 0, "CLASSIFICATION_TYPE": "U", "NORAD_CAT_ID": 36047, "ELEMENT_SET_NO": 999, "REV_AT_EPOCH": 66013, "BSTAR": 0.0018797305, "MEAN_MOTION_DOT": 0.00021233, "MEAN_MOTION_DDOT": 0}, "tle": {"line1": "1 36047U 93036AXJ 25351.66897008  .00021233  00000+0  18797-2 0  9995", "line2": "2 36047  74.0351 324.1985 0008386 352.0710   8.0341 14.96190493660135"}}, "geometry": {"type": "Point", "coordinates": [117.47413048035772, 56.342465997837934]}}, {"type": "Feature", "properties": {"norad_id": 36048, "name": "COSMOS 2251 DEB", "group": "cosmos-2251-debris", "lat": -32.641418031746255, "lon": -81.47813200202555, "alt_km": 752.566316847664, "timestamp": "2025-12-18T07:01:54.986621+00:00", "meta": {"OBJECT_NAME": "COSMOS 2251 DEB", "OBJECT_ID": "1993-036AXK", "EPOCH": "2025-12-17T13:39:12.731040", "MEAN_MOTION": 14.37860683, "ECCENTRICITY": 0.00268301, "INCLINATION": 74.0571, "RA_OF_ASC_NODE": 290.4034, "ARG_OF_PERICENTER": 339.3705, "MEAN_ANOMALY": 200.0221, "EPHEMERIS_TYPE": 0, "CLASSIFICATION_TYPE": "U", "NORAD_CAT_ID": 36048, "ELEMENT_SET_NO": 999, "REV_AT_EPOCH": 85571, "BSTAR": 0.00023913068, "MEAN_MOTION_DOT": 6.98e-06, "MEAN_MOTION_DDOT": 0}, "tle": {"line1": "1 36048U 93036AXK 25351.56889735  .00000698  00000+0  23913-3 0  9992", "line2": "2 36048  74.0571 290.4034 0026830 339.3705 200.0221 14.37860683855717"}}, "geometry": {"type": "Point", "coordinates": [-81.47813200202555, -32.641418031746255]}}, {"type": "Feature", "properties": {"norad_id": 36049, "name": "COSMOS 2251 DEB", "group": "cosmos-2251-debris", "lat": -17.41226061624638, "lon": -66.30064682968033, "alt_km": 683.0988837253035, "timestamp": "2025-12-18T07:01:54.986643+00:00", "meta": {"OBJECT_NAME": "COSMOS 2251 DEB", "OBJECT_ID": "1993-036AXL", "EPOCH": "2025-12-14T15:06:03.977280", "MEAN_MOTION": 14.62178283, "ECCENTRICITY": 0.00106433, "INCLINATION": 74.0297, "RA_OF_ASC_NODE": 115.562, "ARG_OF_PERICENTER": 202.4764, "MEAN_ANOMALY": 157.5938, "EPHEMERIS_TYPE": 0, "CLASSIFICATION_TYPE": "U", "NORAD_CAT_ID": 36049, "ELEMENT_SET_NO": 999, "REV_AT_EPOCH": 85392, "BSTAR": 0.0012373854, "MEAN_MOTION_DOT": 6.209e-05, "MEAN_MOTION_DDOT": 0}, "tle": {"line1": "1 36049U 93036AXL 25348.62921270  .00006209  00000+0  12374-2 0  9999", "line2": "2 36049  74.0297 115.5620 0010643 202.4764 157.5938 14.62178283853929"}}, "geometry": {"type": "Point", "coordinates": [-66.30064682968033, -17.41226061624638]}}, {"type": "Feature", "properties": {"norad_id": 36050, "name": "COSMOS 2251 DEB", "group": "cosmos-2251-debris", "lat": -31.81381205048144, "lon": 172.4829854272294, "alt_km": 543.6085860703542, "timestamp": "2025-12-18T07:01:54.986656+00:00", "meta": {"OBJECT_NAME": "COSMOS 2251 DEB", "OBJECT_ID": "1993-036AXM", "EPOCH": "2025-12-15T21:35:48.459552", "MEAN_MOTION": 15.01080492, "ECCENTRICITY": 0.00887608, "INCLINATION": 74.0305, "RA_OF_ASC_NODE": 187.588, "ARG_OF_PERICENTER": 266.4769, "MEAN_ANOMALY": 92.6264, "EPHEMERIS_TYPE": 0, "CLASSIFICATION_TYPE": "U", "NORAD_CAT_ID": 36050, "ELEMENT_SET_NO": 999, "REV_AT_EPOCH": 67082, "BSTAR": 0.00042445305, "MEAN_MOTION_DOT": 5.866e-05, "MEAN_MOTION_DDOT": 0}, "tle": {"line1": "1 36050U 93036AXM 25349.89986643  .00005866  00000+0  42445-3 0  9997", "line2": "2 36050  74.0305 187.5880 0088760 266.4769  92.6264 15.01080492670823"}}, "geometry": {"type": "Point", "coordinates": [172.4829854272294, -31.81381205048144]}}, {"type": "Feature", "properties": {"norad_id": 36053, "name": "COSMOS 2251 DEB", "group": "cosmos-2251-debris", "lat": 69.2983832792362, "lon": -167.99314363615076, "alt_km": 672.4906335588003, "timestamp": "2025-12-18T07:01:54.986667+00:00", "meta": {"OBJECT_NAME": "COSMOS 2251 DEB", "OBJECT_ID": "1993-036AXQ", "EPOCH": "2025-12-17T02:40:20.863776", "MEAN_MOTION": 14.57233829, "ECCENTRICITY": 0.00325437, "INCLINATION": 73.8701, "RA_OF_ASC_NODE": 144.2965, "ARG_OF_PERICENTER": 91.8963, "MEAN_ANOMALY": 268.5928, "EPHEMERIS_TYPE": 0, "CLASSIFICATION_TYPE": "U", "NORAD_CAT_ID": 36053, "ELEMENT_SET_NO": 999, "REV_AT_EPOCH": 87508, "BSTAR": 0.001194595, "MEAN_MOTION_DOT": 5.411e-05, "MEAN_MOTION_DDOT": 0}, "tle": {"line1": "1 36053U 93036AXQ 25351.11135259  .00005411  00000+0  11946-2 0  9994", "line2": "2 36053  73.8701 144.2965 0032543  91.8963 268.5928 14.57233829875081"}}, "geometry": {"type": "Point", "coordinates": [-167.99314363615076, 69.2983832792362]}}, {"type": "Feature", "properties": {"norad_id": 36058, "name": "COSMOS 2251 DEB", "group": "cosmos-2251-debris", "lat": -50.75233763644922, "lon": -136.59464833761348, "alt_km": 697.1127493593895, "timestamp": "2025-12-18T07:01:54.986678+00:00", "meta": {"OBJECT_NAME": "COSMOS 2251 DEB", "OBJECT_ID": "1993-036AXV", "EPOCH": "2025-12-16T09:31:35.831136", "MEAN_MOTION": 14.58710964, "ECCENTRICITY": 0.00443273, "INCLINATION": 74.0236, "RA_OF_ASC_NODE": 26.4887, "ARG_OF_PERICENTER": 159.9009, "MEAN_ANOMALY": 200.3914, "EPHEMERIS_TYPE": 0, "CLASSIFICATION_TYPE": "U", "NORAD_CAT_ID": 36058, "ELEMENT_SET_NO": 999, "REV_AT_EPOCH": 66164, "BSTAR": 0.00034845634, "MEAN_MOTION_DOT": 1.618e-05, "MEAN_MOTION_DDOT": 0}, "tle": {"line1": "1 36058U 93036AXV 25350.39694249  .00001618  00000+0  34846-3 0  9997", "line2": "2 36058  74.0236  26.4887 0044327 159.9009 200.3914 14.58710964661641"}}, "geometry": {"type": "Point", "coordinates": [-136.59464833761348, -50.75233763644922]}}, {"type": "Feature", "properties": {"norad_id": 36060, "name": "COSMOS 2251 DEB", "group": "cosmos-2251-debris", "lat": 17.024936809556625, "lon": 39.23706217514436, "alt_km": 762.2607676823654, "timestamp": "2025-12-18T07:01:54.986824+00:00", "meta": {"OBJECT_NAME": "COSMOS 2251 DEB", "OBJECT_ID": "1993-036AXX", "EPOCH": "2025-12-17T21:57:23.689728", "MEAN_MOTION": 14.42010986, "ECCENTRICITY": 0.00154512, "INCLINATION": 74.0283, "RA_OF_ASC_NODE": 224.9692, "ARG_OF_PERICENTER": 321.2881, "MEAN_ANOMALY": 38.7166, "EPHEMERIS_TYPE": 0, "CLASSIFICATION_TYPE": "U", "NORAD_CAT_ID": 36060, "ELEMENT_SET_NO": 999, "REV_AT_EPOCH": 85084, "BSTAR": 0.00025663889, "MEAN_MOTION_DOT": 8.17e-06, "MEAN_MOTION_DDOT": 0}, "tle": {"line1": "1 36060U 93036AXX 25351.91485752  .00000817  00000+0  25664-3 0  9994", "line2": "2 36060  74.0283 224.9692 0015451 321.2881  38.7166 14.42010986850847"}}, "geometry": {"type": "Point", "coordinates": [39.23706217514436, 17.024936809556625]}}, {"type": "Feature", "properties": {"norad_id": 36061, "name": "COSMOS 2251 DEB", "group": "cosmos-2251-debris", "lat": 1.3566675984951022, "lon": 169.2086109674014, "alt_km": 787.3787034177058, "timestamp": "2025-12-18T07:01:54.986837+00:00", "meta": {"OBJECT_NAME": "COSMOS 2251 DEB", "OBJECT_ID": "1993-036AXY", "EPOCH": "2025-12-15T17:55:08.095872", "MEAN_MOTION": 14.33713146, "ECCENTRICITY": 0.00367991, "INCLINATION": 74.0242, "RA_OF_ASC_NODE": 354.2562, "ARG_OF_PERICENTER": 81.2237, "MEAN_ANOMALY": 279.3079, "EPHEMERIS_TYPE": 0, "CLASSIFICATION_TYPE": "U", "NORAD_CAT_ID": 36061, "ELEMENT_SET_NO": 999, "REV_AT_EPOCH": 65147, "BSTAR": 0.00027590632, "MEAN_MOTION_DOT": 7.46e-06, "MEAN_MOTION_DDOT": 0}, "tle": {"line1": "1 36061U 93036AXY 25349.74662148  .00000746  00000+0  27591-3 0  9991", "line2": "2 36061  74.0242 354.2562 0036799  81.2237 279.3079 14.33713146651474"}}, "geometry": {"type": "Point", "coordinates": [169.2086109674014, 1.3566675984951022]}}, {"type": "Feature", "properties": {"norad_id": 36073, "name": "COSMOS 2251 DEB", "group": "cosmos-2251-debris", "lat": -57.21151361019279, "lon": -74.00881488095531, "alt_km": 778.8669979555425, "timestamp": "2025-12-18T07:01:54.986847+00:00", "meta": {"OBJECT_NAME": "COSMOS 2251 DEB", "OBJECT_ID": "1993-036AYL", "EPOCH": "2025-12-14T06:16:10.983072", "MEAN_MOTION": 14.34955439, "ECCENTRICITY": 0.00239275, "INCLINATION": 74.0321, "RA_OF_ASC_NODE": 319.7693, "ARG_OF_PERICENTER": 27.306, "MEAN_ANOMALY": 332.9344, "EPHEMERIS_TYPE": 0, "CLASSIFICATION_TYPE": "U", "NORAD_CAT_ID": 36073, "ELEMENT_SET_NO": 999, "REV_AT_EPOCH": 70229, "BSTAR": 0.0003171948, "MEAN_MOTION_DOT": 8.79e-06, "MEAN_MOTION_DDOT": 0}, "tle": {"line1": "1 36073U 93036AYL 25348.26123823  .00000879  00000+0  31719-3 0  9996", "line2": "2 36073  74.0321 319.7693 0023927  27.3060 332.9344 14.34955439702292"}}, "geometry": {"type": "Point", "coordinates": [-74.00881488095531, -57.21151361019279]}}, {"type": "Feature", "properties": {"norad_id": 36074, "name": "COSMOS 2251 DEB", "group": "cosmos-2251-debris", "lat": -65.89893937649222, "lon": -169.94468971159287, "alt_km": 781.9565048451987, "timestamp": "2025-12-18T07:01:54.986857+00:00", "meta": {"OBJECT_NAME": "COSMOS 2251 DEB", "OBJECT_ID": "1993-036AYM", "EPOCH": "2025-12-17T04:55:34.739616", "MEAN_MOTION": 14.43760583, "ECCENTRICITY": 0.00415505, "INCLINATION": 73.9924, "RA_OF_ASC_NODE": 332.1608, "ARG_OF_PERICENTER": 62.4035, "MEAN_ANOMALY": 298.1332, "EPHEMERIS_TYPE": 0, "CLASSIFICATION_TYPE": "U", "NORAD_CAT_ID": 36074, "ELEMENT_SET_NO": 999, "REV_AT_EPOCH": 85974, "BSTAR": 0.00075567049, "MEAN_MOTION_DOT": 2.571e-05, "MEAN_MOTION_DDOT": 0}, "tle": {"line1": "1 36074U 93036AYM 25351.20526319  .00002571  00000+0  75567-3 0  9992", "line2": "2 36074  73.9924 332.1608 0041550  62.4035 298.1332 14.43760583859746"}}, "geometry": {"type": "Point", "coordinates": [-169.94468971159287, -65.89893937649222]}}]}